[{"OBJECT_NAME":"STARLINK-31159","OBJECT_ID":"2024-005N","EPOCH":"2026-03-09T11:08:29.016672","MEAN_MOTION":15.26737472,"ECCENTRICITY":9.226e-5,"INCLINATION":42.9962,"RA_OF_ASC_NODE":220.6332,"ARG_OF_PERICENTER":252.9268,"MEAN_ANOMALY":107.1482,"EPHEMERIS_TYPE":0,"CLASSIFICATION_TYPE":"U","NORAD_CAT_ID":58740,"ELEMENT_SET_NO":999,"REV_AT_EPOCH":12050,"BSTAR":-2.161951e-6,"MEAN_MOTION_DOT":-3.17e-6,"MEAN_MOTION_DDOT":0},{"OBJECT_NAME":"COSMOS 2251 DEB","OBJECT_ID":"1993-036N","EPOCH":"2026-03-09T20:39:34.848000","MEAN_MOTION":15.17003756,"ECCENTRICITY":0.00564486,"INCLINATION":74.0035,"RA_OF_ASC_NODE":352.1163,"ARG_OF_PERICENTER":60.1769,"MEAN_ANOMALY":300.5022,"EPHEMERIS_TYPE":0,"CLASSIFICATION_TYPE":"U","NORAD_CAT_ID":33765,"ELEMENT_SET_NO":999,"REV_AT_EPOCH":90936,"BSTAR":0.0026022202,"MEAN_MOTION_DOT":0.00053945,"MEAN_MOTION_DDOT":0}]
